[{"OBJECT_NAME":"STARLINK-36247","OBJECT_ID":"2026-054P","EPOCH":"2026-04-04T17:30:34.956000","MEAN_MOTION":15.80806372,"ECCENTRICITY":9.679e-5,"INCLINATION":53.1585,"RA_OF_ASC_NODE":182.0691,"ARG_OF_PERICENTER":66.701,"MEAN_ANOMALY":293.4114,"EPHEMERIS_TYPE":0,"CLASSIFICATION_TYPE":"U","NORAD_CAT_ID":68245,"ELEMENT_SET_NO":999,"REV_AT_EPOCH":289,"BSTAR":0.00080936773,"MEAN_MOTION_DOT":0.00161568,"MEAN_MOTION_DDOT":0},{"OBJECT_NAME":"STARLINK-37043","OBJECT_ID":"2026-054Q","EPOCH":"2026-04-04T17:28:25.094208","MEAN_MOTION":15.8088431,"ECCENTRICITY":0.00017966,"INCLINATION":53.1583,"RA_OF_ASC_NODE":182.0588,"ARG_OF_PERICENTER":42.2949,"MEAN_ANOMALY":317.8212,"EPHEMERIS_TYPE":0,"CLASSIFICATION_TYPE":"U","NORAD_CAT_ID":68246,"ELEMENT_SET_NO":999,"REV_AT_EPOCH":289,"BSTAR":0.00088985415,"MEAN_MOTION_DOT":0.00178706,"MEAN_MOTION_DDOT":0},{"OBJECT_NAME":"STARLINK-37044","OBJECT_ID":"2026-054R","EPOCH":"2026-04-03T15:39:46.990944","MEAN_MOTION":15.80565943,"ECCENTRICITY":0.00020442,"INCLINATION":53.1589,"RA_OF_ASC_NODE":187.4393,"ARG_OF_PERICENTER":60.6198,"MEAN_ANOMALY":299.5029,"EPHEMERIS_TYPE":0,"CLASSIFICATION_TYPE":"U","NORAD_CAT_ID":68247,"ELEMENT_SET_NO":999,"REV_AT_EPOCH":272,"BSTAR":-0.00065001386,"MEAN_MOTION_DOT":-0.00125387,"MEAN_MOTION_DDOT":0},{"OBJECT_NAME":"STARLINK-36997","OBJECT_ID":"2026-054S","EPOCH":"2026-04-04T22:36:59.278464","MEAN_MOTION":15.75247054,"ECCENTRICITY":0.00020503,"INCLINATION":53.159,"RA_OF_ASC_NODE":181.2715,"ARG_OF_PERICENTER":62.4209,"MEAN_ANOMALY":297.7019,"EPHEMERIS_TYPE":0,"CLASSIFICATION_TYPE":"U","NORAD_CAT_ID":68248,"ELEMENT_SET_NO":999,"REV_AT_EPOCH":292,"BSTAR":0.0020364935,"MEAN_MOTION_DOT":0.00323896,"MEAN_MOTION_DDOT":0},{"OBJECT_NAME":"STARLINK-37141","OBJECT_ID":"2026-054T","EPOCH":"2026-04-04T22:00:01.999584","MEAN_MOTION":15.75211938,"ECCENTRICITY":0.00011829,"INCLINATION":53.158,"RA_OF_ASC_NODE":181.2416,"ARG_OF_PERICENTER":98.1079,"MEAN_ANOMALY":193.6701,"EPHEMERIS_TYPE":0,"CLASSIFICATION_TYPE":"U","NORAD_CAT_ID":68249,"ELEMENT_SET_NO":999,"REV_AT_EPOCH":420,"BSTAR":0.00065658199,"MEAN_MOTION_DOT":0.00101097,"MEAN_MOTION_DDOT":0},{"OBJECT_NAME":"STARLINK-37087","OBJECT_ID":"2026-054U","EPOCH":"2026-04-04T17:50:16.825920","MEAN_MOTION":15.75186166,"ECCENTRICITY":7.015e-5,"INCLINATION":53.1582,"RA_OF_ASC_NODE":182.1589,"ARG_OF_PERICENTER":52.7159,"MEAN_ANOMALY":307.3925,"EPHEMERIS_TYPE":0,"CLASSIFICATION_TYPE":"U","NORAD_CAT_ID":68250,"ELEMENT_SET_NO":999,"REV_AT_EPOCH":289,"BSTAR":0.00026539762,"MEAN_MOTION_DOT":0.00040142,"MEAN_MOTION_DDOT":0},{"OBJECT_NAME":"STARLINK-36274","OBJECT_ID":"2026-054V","EPOCH":"2026-04-04T22:30:55.238976","MEAN_MOTION":15.75245578,"ECCENTRICITY":0.00013501,"INCLINATION":53.1585,"RA_OF_ASC_NODE":181.2432,"ARG_OF_PERICENTER":113.8362,"MEAN_ANOMALY":246.28,"EPHEMERIS_TYPE":0,"CLASSIFICATION_TYPE":"U","NORAD_CAT_ID":68251,"ELEMENT_SET_NO":999,"REV_AT_EPOCH":292,"BSTAR":0.0018049277,"MEAN_MOTION_DOT":0.00285665,"MEAN_MOTION_DDOT":0},{"OBJECT_NAME":"STARLINK-37085","OBJECT_ID":"2026-054W","EPOCH":"2026-04-04T15:50:53.788128","MEAN_MOTION":15.80848,"ECCENTRICITY":9.529e-5,"INCLINATION":53.1587,"RA_OF_ASC_NODE":182.3443,"ARG_OF_PERICENTER":75.6763,"MEAN_ANOMALY":284.4366,"EPHEMERIS_TYPE":0,"CLASSIFICATION_TYPE":"U","NORAD_CAT_ID":68252,"ELEMENT_SET_NO":999,"REV_AT_EPOCH":288,"BSTAR":0.00020654182,"MEAN_MOTION_DOT":0.00040209,"MEAN_MOTION_DDOT":0},{"OBJECT_NAME":"STARLINK-37086","OBJECT_ID":"2026-054X","EPOCH":"2026-04-04T14:18:47.076480","MEAN_MOTION":15.80814691,"ECCENTRICITY":0.0002318,"INCLINATION":53.1588,"RA_OF_ASC_NODE":182.657,"ARG_OF_PERICENTER":48.7927,"MEAN_ANOMALY":311.3295,"EPHEMERIS_TYPE":0,"CLASSIFICATION_TYPE":"U","NORAD_CAT_ID":68253,"ELEMENT_SET_NO":999,"REV_AT_EPOCH":287,"BSTAR":-0.00018515,"MEAN_MOTION_DOT":-0.00036996,"MEAN_MOTION_DDOT":0},{"OBJECT_NAME":"STARLINK-37084","OBJECT_ID":"2026-054Y","EPOCH":"2026-04-04T17:18:42.206976","MEAN_MOTION":15.80841779,"ECCENTRICITY":0.00022553,"INCLINATION":53.1586,"RA_OF_ASC_NODE":182.0132,"ARG_OF_PERICENTER":43.9779,"MEAN_ANOMALY":316.1422,"EPHEMERIS_TYPE":0,"CLASSIFICATION_TYPE":"U","NORAD_CAT_ID":68254,"ELEMENT_SET_NO":999,"REV_AT_EPOCH":289,"BSTAR":0.00062577761,"MEAN_MOTION_DOT":0.00124432,"MEAN_MOTION_DDOT":0},{"OBJECT_NAME":"STARLINK-37075","OBJECT_ID":"2026-054Z","EPOCH":"2026-04-04T15:48:43.029504","MEAN_MOTION":15.80929334,"ECCENTRICITY":0.00015218,"INCLINATION":53.1585,"RA_OF_ASC_NODE":182.3347,"ARG_OF_PERICENTER":72.1791,"MEAN_ANOMALY":287.9397,"EPHEMERIS_TYPE":0,"CLASSIFICATION_TYPE":"U","NORAD_CAT_ID":68255,"ELEMENT_SET_NO":999,"REV_AT_EPOCH":288,"BSTAR":0.00051662544,"MEAN_MOTION_DOT":0.00102756,"MEAN_MOTION_DDOT":0},{"OBJECT_NAME":"STARLINK-36333","OBJECT_ID":"2026-054AA","EPOCH":"2026-04-04T17:17:37.301568","MEAN_MOTION":15.80838788,"ECCENTRICITY":0.0001477,"INCLINATION":53.1586,"RA_OF_ASC_NODE":182.008,"ARG_OF_PERICENTER":44.3479,"MEAN_ANOMALY":315.7662,"EPHEMERIS_TYPE":0,"CLASSIFICATION_TYPE":"U","NORAD_CAT_ID":68256,"ELEMENT_SET_NO":999,"REV_AT_EPOCH":289,"BSTAR":0.00054725153,"MEAN_MOTION_DOT":0.00108506,"MEAN_MOTION_DDOT":0},{"OBJECT_NAME":"STARLINK-36745","OBJECT_ID":"2026-054AB","EPOCH":"2026-04-04T17:43:44.871456","MEAN_MOTION":15.75224228,"ECCENTRICITY":0.00018914,"INCLINATION":53.1582,"RA_OF_ASC_NODE":182.1282,"ARG_OF_PERICENTER":33.1379,"MEAN_ANOMALY":326.976,"EPHEMERIS_TYPE":0,"CLASSIFICATION_TYPE":"U","NORAD_CAT_ID":68257,"ELEMENT_SET_NO":999,"REV_AT_EPOCH":289,"BSTAR":0.0009496368,"MEAN_MOTION_DOT":0.00147399,"MEAN_MOTION_DDOT":0},{"OBJECT_NAME":"STARLINK-36890","OBJECT_ID":"2026-054AC","EPOCH":"2026-04-04T17:14:22.572384","MEAN_MOTION":15.80839731,"ECCENTRICITY":0.00012039,"INCLINATION":53.1586,"RA_OF_ASC_NODE":181.993,"ARG_OF_PERICENTER":47.5669,"MEAN_ANOMALY":312.5455,"EPHEMERIS_TYPE":0,"CLASSIFICATION_TYPE":"U","NORAD_CAT_ID":68258,"ELEMENT_SET_NO":999,"REV_AT_EPOCH":289,"BSTAR":0.00038153864,"MEAN_MOTION_DOT":0.00075146,"MEAN_MOTION_DDOT":0},{"OBJECT_NAME":"STARLINK-36323","OBJECT_ID":"2026-054AD","EPOCH":"2026-04-04T22:00:01.999584","MEAN_MOTION":15.76673796,"ECCENTRICITY":7.281e-5,"INCLINATION":53.1593,"RA_OF_ASC_NODE":181.0315,"ARG_OF_PERICENTER":69.3487,"MEAN_ANOMALY":324.5533,"EPHEMERIS_TYPE":0,"CLASSIFICATION_TYPE":"U","NORAD_CAT_ID":68259,"ELEMENT_SET_NO":999,"REV_AT_EPOCH":416,"BSTAR":-0.011668464,"MEAN_MOTION_DOT":-0.01687013,"MEAN_MOTION_DDOT":0},{"OBJECT_NAME":"STARLINK-37056","OBJECT_ID":"2026-054AE","EPOCH":"2026-04-04T17:13:17.947776","MEAN_MOTION":15.8084463,"ECCENTRICITY":0.00016699,"INCLINATION":53.1584,"RA_OF_ASC_NODE":181.987,"ARG_OF_PERICENTER":67.5564,"MEAN_ANOMALY":292.5636,"EPHEMERIS_TYPE":0,"CLASSIFICATION_TYPE":"U","NORAD_CAT_ID":68260,"ELEMENT_SET_NO":999,"REV_AT_EPOCH":289,"BSTAR":0.00048372511,"MEAN_MOTION_DOT":0.00095713,"MEAN_MOTION_DDOT":0}]
