STARLINK-36247          
1 68245U 26054P   26094.72957125  .00161568  00000+0  80937-3 0  9997
2 68245  53.1585 182.0691 0000967  66.7010 293.4114 15.80806372  2896
STARLINK-37043          
1 68246U 26054Q   26094.72806822  .00178706  00000+0  88985-3 0  9998
2 68246  53.1583 182.0588 0001796  42.2949 317.8212 15.80884310  2899
STARLINK-37044          
1 68247U 26054R   26093.65262721 -.00125387  00000+0 -65001-3 0  9997
2 68247  53.1589 187.4393 0002044  60.6198 299.5029 15.80565943  2728
STARLINK-36997          
1 68248U 26054S   26094.94235276  .00323896  00000+0  20365-2 0  9992
2 68248  53.1590 181.2715 0002050  62.4209 297.7019 15.75247054  2926
STARLINK-37141          
1 68249U 26054T   26094.91668981  .00101097  00000+0  65658-3 0  9995
2 68249  53.1580 181.2416 0001182  98.1079 193.6701 15.75211938  4207
STARLINK-37087          
1 68250U 26054U   26094.74325030  .00040142  00000+0  26540-3 0  9993
2 68250  53.1582 182.1589 0000701  52.7159 307.3925 15.75186166  2892
STARLINK-36274          
1 68251U 26054V   26094.93813934  .00285665  00000+0  18049-2 0  9995
2 68251  53.1585 181.2432 0001350 113.8362 246.2800 15.75245578  2929
STARLINK-37085          
1 68252U 26054W   26094.66034477  .00040209  00000+0  20654-3 0  9992
2 68252  53.1587 182.3443 0000952  75.6763 284.4366 15.80848000  2884
STARLINK-37086          
1 68253U 26054X   26094.59637820 -.00036996  00000+0 -18515-3 0  9999
2 68253  53.1588 182.6570 0002318  48.7927 311.3295 15.80814691  2870
STARLINK-37084          
1 68254U 26054Y   26094.72132184  .00124432  00000+0  62578-3 0  9997
2 68254  53.1586 182.0132 0002255  43.9779 316.1422 15.80841779  2893
STARLINK-37075          
1 68255U 26054Z   26094.65883136  .00102756  00000+0  51663-3 0  9998
2 68255  53.1585 182.3347 0001521  72.1791 287.9397 15.80929334  2886
STARLINK-36333          
1 68256U 26054AA  26094.72057062  .00108506  00000+0  54725-3 0  9999
2 68256  53.1586 182.0080 0001477  44.3479 315.7662 15.80838788  2891
STARLINK-36745          
1 68257U 26054AB  26094.73871379  .00147399  00000+0  94964-3 0  9998
2 68257  53.1582 182.1282 0001891  33.1379 326.9760 15.75224228  2893
STARLINK-36890          
1 68258U 26054AC  26094.71831681  .00075146  00000+0  38154-3 0  9998
2 68258  53.1586 181.9930 0001203  47.5669 312.5455 15.80839731  2892
STARLINK-36323          
1 68259U 26054AD  26094.91668981 -.01687013  00000+0 -11668-1 0  9996
2 68259  53.1593 181.0315 0000728  69.3487 324.5533 15.76673796  4164
STARLINK-37056          
1 68260U 26054AE  26094.71756884  .00095713  00000+0  48373-3 0  9998
2 68260  53.1584 181.9870 0001669  67.5564 292.5636 15.80844630  2890
